NORAD_CAT_ID,OBJECT_NAME,OBJECT_TYPE,EPOCH,MEAN_MOTION,ECCENTRICITY,INCLINATION,RA_OF_ASC_NODE,ARG_OF_PERICENTER,MEAN_ANOMALY,BSTAR,MEAN_MOTION_DOT,MEAN_MOTION_DDOT,TLE_LINE0,TLE_LINE1,TLE_LINE2,SEMIMAJOR_AXIS,PERIOD,APOGEE,PERIGEE,DECAYED
55786.0,STARLINK-5823,PAYLOAD,2024-05-18 05:30:20,14.98334178,0.0003031,70.001,69.7934,265.3345,94.7468,8.0733e-05,8.71e-06,0.0,0 STARLINK-5823,1 55786U 23028AX  24139.22940812  .00000871  00000-0  80733-4 0  9994,2 55786  70.0010  69.7934 0003031 265.3345  94.7468 14.98334178 68082,6950.18,96.107,574.152,569.938,0.0
55786.0,STARLINK-5823,PAYLOAD,2024-05-18 21:31:41,14.98326122,0.0003036,70.0016,68.1114,265.1352,94.946,0.0001256,1.406e-05,0.0,0 STARLINK-5823,1 55786U 23028AX  24139.89701049  .00001406  00000-0  12560-3 0  9991,2 55786  70.0016  68.1114 0003036 265.1352  94.9460 14.98326122 68198,6950.205,96.107,574.18,569.96,0.0
55786.0,STARLINK-5823,PAYLOAD,2024-05-19 03:56:13,14.98351654,0.0002745,70.0017,67.4397,257.3822,102.703,-0.0001287,-1.629e-05,0.0,0 STARLINK-5823,1 55786U 23028AX  24140.16404102 -.00001629  00000-0 -12870-3 0  9996,2 55786  70.0017  67.4397 0002745 257.3822 102.7030 14.98351654 68228,6950.126,96.106,573.899,570.083,0.0
55786.0,STARLINK-5823,PAYLOAD,2024-05-19 19:57:35,14.98316442,0.0002778,70.0007,65.753,266.4539,93.6303,6.2688e-06,-1.8e-07,0.0,0 STARLINK-5823,1 55786U 23028AX  24140.83166007 -.00000018  00000-0  62688-5 0  9993,2 55786  70.0007  65.7530 0002778 266.4539  93.6303 14.98316442 68327,6950.235,96.108,574.031,570.169,0.0
55786.0,STARLINK-5823,PAYLOAD,2024-05-20 03:58:16,14.98320862,0.0002838,70.0011,64.9127,263.0411,97.0425,-0.00013003,-1.644e-05,0.0,0 STARLINK-5823,1 55786U 23028AX  24141.16546372 -.00001644  00000-0 -13003-3 0  9999,2 55786  70.0011  64.9127 0002838 263.0411  97.0425 14.98320862 68384,6950.221,96.108,574.059,570.114,0.0
55786.0,STARLINK-5823,PAYLOAD,2024-05-20 19:59:36,14.98330973,0.0003173,69.9998,63.2286,269.7207,90.3588,-9.8798e-05,-1.272e-05,0.0,0 STARLINK-5823,1 55786U 23028AX  24141.83305916 -.00001272  00000-0 -98798-4 0  9992,2 55786  69.9998  63.2286 0003173 269.7207  90.3588 14.98330973 68472,6950.19,96.107,574.26,569.85,0.0
55786.0,STARLINK-5823,PAYLOAD,2024-05-21 04:00:15,14.98337745,0.0002901,70.0006,62.3877,264.847,95.2358,-9.5268e-06,-2.07e-06,0.0,0 STARLINK-5823,1 55786U 23028AX  24142.16685174 -.00000207  00000-0 -95268-5 0  9993,2 55786  70.0006  62.3877 0002901 264.8470  95.2358 14.98337745 68526,6950.169,96.107,574.05,570.018,0.0
55786.0,STARLINK-5823,PAYLOAD,2024-05-21 05:36:23,14.98338539,0.0002883,70.0006,62.2191,263.1277,96.9554,-1.2253e-06,-1.08e-06,0.0,0 STARLINK-5823,1 55786U 23028AX  24142.23361066 -.00000108  00000-0 -12253-5 0  9995,2 55786  70.0006  62.2191 0002883 263.1277  96.9554 14.98338539 68540,6950.166,96.106,574.035,570.028,0.0
55786.0,STARLINK-5823,PAYLOAD,2024-05-21 20:01:37,14.98321541,0.000264,70.0014,60.7049,253.091,106.996,0.00012588,1.409e-05,0.0,0 STARLINK-5823,1 55786U 23028AX  24142.83445869  .00001409  00000-0  12588-3 0  9997,2 55786  70.0014  60.7049 0002640 253.0910 106.9960 14.98321541 68624,6950.219,96.108,573.919,570.249,0.0
55786.0,STARLINK-5823,PAYLOAD,2024-05-21 21:37:45,14.98321796,0.0002637,70.0014,60.5366,253.1654,106.9216,0.00012594,1.41e-05,0.0,0 STARLINK-5823,1 55786U 23028AX  24142.90121884  .00001410  00000-0  12594-3 0  9992,2 55786  70.0014  60.5366 0002637 253.1654 106.9216 14.98321796 68644,6950.218,96.108,573.916,570.25,0.0
55786.0,STARLINK-5823,PAYLOAD,2024-05-22 04:02:17,14.98325076,0.0002689,70.0009,59.8625,264.5157,95.5695,0.00016589,1.887e-05,0.0,0 STARLINK-5823,1 55786U 23028AX  24143.16825733  .00001887  00000-0  16589-3 0  9991,2 55786  70.0009  59.8625 0002689 264.5157  95.5695 14.98325076 68681,6950.208,96.107,573.942,570.204,0.0
55786.0,STARLINK-5823,PAYLOAD,2024-05-22 20:03:38,14.98330017,0.0002802,70.0009,58.1803,265.3754,94.7085,-7.8121e-06,-1.86e-06,0.0,0 STARLINK-5823,1 55786U 23028AX  24143.83585917 -.00000186  00000-0 -78121-5 0  9997,2 55786  70.0009  58.1803 0002802 265.3754  94.7085 14.98330017 68775,6950.193,96.107,574.005,570.11,0.0
55786.0,STARLINK-5823,PAYLOAD,2024-05-22 21:39:46,14.98330481,0.0002762,70.0009,58.0118,264.0999,95.9845,-1.79e-05,-3.07e-06,0.0,0 STARLINK-5823,1 55786U 23028AX  24143.90261912 -.00000307  00000-0 -17900-4 0  9993,2 55786  70.0009  58.0118 0002762 264.0999  95.9845 14.98330481 68799,6950.191,96.107,573.976,570.137,0.0
55786.0,STARLINK-5823,PAYLOAD,2024-05-23 04:04:18,14.98332302,0.0002794,70.0011,57.3392,266.4124,93.6716,2.2405e-05,1.74e-06,0.0,0 STARLINK-5823,1 55786U 23028AX  24144.16965658  .00000174  00000-0  22405-4 0  9996,2 55786  70.0011  57.3392 0002794 266.4124  93.6716 14.98332302 68830,6950.186,96.107,573.993,570.109,0.0
55786.0,STARLINK-5823,PAYLOAD,2024-05-23 21:41:46,14.98334104,0.0002749,70.0011,55.4873,267.0674,93.017,2.2436e-06,-6.6e-07,0.0,0 STARLINK-5823,1 55786U 23028AX  24144.90401456 -.00000066  00000-0  22436-5 0  9995,2 55786  70.0011  55.4873 0002749 267.0674  93.0170 14.98334104 68942,6950.18,96.107,573.956,570.135,0.0
55786.0,STARLINK-5823,PAYLOAD,2024-05-24 04:06:18,14.98340861,0.0002616,70.0013,54.8142,262.2721,97.8141,7.8922e-05,8.49e-06,0.0,0 STARLINK-5823,1 55786U 23028AX  24145.17104690  .00000849  00000-0  78922-4 0  9993,2 55786  70.0013  54.8142 0002616 262.2721  97.8141 14.98340861 68979,6950.159,96.106,573.842,570.206,0.0
55786.0,STARLINK-5823,PAYLOAD,2024-05-24 21:43:47,14.98324771,0.0002297,70.0023,52.9626,256.4617,103.6286,4.2194e-05,4.11e-06,0.0,0 STARLINK-5823,1 55786U 23028AX  24145.90541613  .00000411  00000-0  42194-4 0  9991,2 55786  70.0023  52.9626 0002297 256.4617 103.6286 14.98324771 69081,6950.209,96.107,573.671,570.478,0.0
55786.0,STARLINK-5823,PAYLOAD,2024-05-25 04:08:19,14.98333766,0.000274,70.001,52.2889,268.8032,91.2813,9.9599e-06,2.6e-07,0.0,0 STARLINK-5823,1 55786U 23028AX  24146.17245129  .00000026  00000-0  99599-5 0  9998,2 55786  70.0010  52.2889 0002740 268.8032  91.2813 14.98333766 69129,6950.181,96.107,573.951,570.142,0.0
55786.0,STARLINK-5823,PAYLOAD,2024-05-25 10:32:52,14.98329507,0.0002425,70.0027,51.6156,270.7044,89.3837,-9.0178e-05,-1.169e-05,0.0,0 STARLINK-5823,1 55786U 23028AX  24146.43949710 -.00001169  00000-0 -90178-4 0  9998,2 55786  70.0027  51.6156 0002425 270.7044  89.3837 14.98329507 69179,6950.194,96.107,573.745,570.374,0.0
55786.0,STARLINK-5823,PAYLOAD,2024-05-25 20:09:41,14.9832523,0.0003093,70.0002,50.6047,269.2172,90.8632,-0.0001125,-1.435e-05,0.0,0 STARLINK-5823,1 55786U 23028AX  24146.84006016 -.00001435  00000-0 -11250-3 0  9995,2 55786  70.0002  50.6047 0003093 269.2172  90.8632 14.98325230 69222,6950.208,96.107,574.222,569.923,0.0
55786.0,STARLINK-5823,PAYLOAD,2024-05-26 04:10:21,14.9832609,0.0002866,70.0008,49.7631,263.5213,96.562,-6.5364e-05,-8.73e-06,0.0,0 STARLINK-5823,1 55786U 23028AX  24147.17385880 -.00000873  00000-0 -65364-4 0  9992,2 55786  70.0008  49.7631 0002866 263.5213  96.5620 14.98326090 69287,6950.205,96.107,574.062,570.078,0.0
55786.0,STARLINK-5823,PAYLOAD,2024-05-26 20:11:41,14.98330369,0.0003285,70.001,48.0807,270.8424,89.2358,4.0771e-05,3.93e-06,0.0,0 STARLINK-5823,1 55786U 23028AX  24147.84145265  .00000393  00000-0  40771-4 0  9997,2 55786  70.0010  48.0807 0003285 270.8424  89.2358 14.98330369 69379,6950.192,96.107,574.34,569.774,0.0
55786.0,STARLINK-5823,PAYLOAD,2024-05-26 23:23:57,14.98333041,0.000297,70.0003,47.7431,267.9775,92.1044,3.8542e-05,3.67e-06,0.0,0 STARLINK-5823,1 55786U 23028AX  24147.97497153  .00000367  00000-0  38542-4 0  9991,2 55786  70.0003  47.7431 0002970 267.9775  92.1044 14.98333041 69405,6950.183,96.107,574.113,569.984,0.0
55786.0,STARLINK-5823,PAYLOAD,2024-05-27 10:36:54,14.98329518,0.0003018,70.0006,46.5663,268.7699,91.3115,-4.5606e-05,-6.37e-06,0.0,0 STARLINK-5823,1 55786U 23028AX  24148.44229439 -.00000637  00000-0 -45606-4 0  9995,2 55786  70.0006  46.5663 0003018 268.7699  91.3115 14.98329518 69471,6950.194,96.107,574.157,569.962,0.0
55786.0,STARLINK-5823,PAYLOAD,2024-05-27 20:13:42,14.98324422,0.0002716,70.0009,45.5556,256.5866,103.4991,4.118e-05,3.98e-06,0.0,0 STARLINK-5823,1 55786U 23028AX  24148.84285608  .00000398  00000-0  41180-4 0  9994,2 55786  70.0009  45.5556 0002716 256.5866 103.4991 14.98324422 69521,6950.21,96.107,573.963,570.187,0.0
55786.0,STARLINK-5823,PAYLOAD,2024-05-27 21:49:50,14.98324168,0.0002724,70.001,45.3873,256.5316,103.554,3.6102e-05,3.38e-06,0.0,0 STARLINK-5823,1 55786U 23028AX  24148.90961656  .00000338  00000-0  36102-4 0  9997,2 55786  70.0010  45.3873 0002724 256.5316 103.5540 14.98324168 69542,6950.211,96.107,573.969,570.183,0.0
55786.0,STARLINK-5823,PAYLOAD,2024-05-28 10:38:55,14.98325725,0.0002791,70.0009,44.0404,264.8143,95.2697,-2.2395e-05,-3.6e-06,0.0,0 STARLINK-5823,1 55786U 23028AX  24149.44369909 -.00000360  00000-0 -22395-4 0  9996,2 55786  70.0009  44.0404 0002791 264.8143  95.2697 14.98325725 69629,6950.206,96.107,574.011,570.131,0.0
55786.0,STARLINK-5823,PAYLOAD,2024-05-28 20:15:43,14.98334621,0.0002928,70.0005,43.0296,264.692,95.3905,-2.8654e-05,-4.35e-06,0.0,0 STARLINK-5823,1 55786U 23028AX  24149.84425246 -.00000435  00000-0 -28654-4 0  9994,2 55786  70.0005  43.0296 0002928 264.6920  95.3905 14.98334621 69679,6950.179,96.107,574.079,570.009,0.0
55786.0,STARLINK-5823,PAYLOAD,2024-05-28 21:51:51,14.98334185,0.0002932,70.0006,42.8612,264.637,95.4454,-3.2723e-05,-4.83e-06,0.0,0 STARLINK-5823,1 55786U 23028AX  24149.91101267 -.00000483  00000-0 -32723-4 0  9991,2 55786  70.0006  42.8612 0002932 264.6370  95.4454 14.98334185 69690,6950.18,96.107,574.083,570.007,0.0
55786.0,STARLINK-5823,PAYLOAD,2024-05-29 02:40:15,14.98335105,0.0002942,70.0007,42.3568,266.1453,93.9369,-1.9828e-05,-3.3e-06,0.0,0 STARLINK-5823,1 55786U 23028AX  24150.11129127 -.00000330  00000-0 -19828-4 0  9992,2 55786  70.0007  42.3568 0002942 266.1453  93.9369 14.98335105 69721,6950.177,96.107,574.087,569.997,0.0
